{
    "links": {
        "self": "http://www.neowsapp.com/rest/v1/neo/3719125?api_key=iIulBulltgU6a56xZRHN4H3l9WmuAYTsLGpBGhQ2"
    },
    "id": "3719125",
    "neo_reference_id": "3719125",
    "name": "(2015 HX181)",
    "designation": "2015 HX181",
    "nasa_jpl_url": "http://ssd.jpl.nasa.gov/sbdb.cgi?sstr=3719125",
    "absolute_magnitude_h": 23.9,
    "estimated_diameter": {
        "kilometers": {
            "estimated_diameter_min": 0.04411182,
            "estimated_diameter_max": 0.0986370281
        },
        "meters": {
            "estimated_diameter_min": 44.1118199997,
            "estimated_diameter_max": 98.6370281305
        },
        "miles": {
            "estimated_diameter_min": 0.0274098057,
            "estimated_diameter_max": 0.0612901888
        },
        "feet": {
            "estimated_diameter_min": 144.7238235278,
            "estimated_diameter_max": 323.6123073718
        }
    },
    "is_potentially_hazardous_asteroid": false,
    "close_approach_data": [
        {
            "close_approach_date": "2007-09-16",
            "close_approach_date_full": "2007-Sep-16 02:52",
            "epoch_date_close_approach": 1189911120000,
            "relative_velocity": {
                "kilometers_per_second": "17.0754114611",
                "kilometers_per_hour": "61471.4812601112",
                "miles_per_hour": "38195.9878974285"
            },
            "miss_distance": {
                "astronomical": "0.017701044",
                "lunar": "6.885706116",
                "kilometers": "2648038.47917628",
                "miles": "1645414.812061464"
            },
            "orbiting_body": "Mars"
        },
        {
            "close_approach_date": "2015-04-19",
            "close_approach_date_full": "2015-Apr-19 17:33",
            "epoch_date_close_approach": 1429464780000,
            "relative_velocity": {
                "kilometers_per_second": "13.4933763323",
                "kilometers_per_hour": "48576.1547963988",
                "miles_per_hour": "30183.3335177957"
            },
            "miss_distance": {
                "astronomical": "0.0312021537",
                "lunar": "12.1376377893",
                "kilometers": "4667775.732932619",
                "miles": "2900421.3461193822"
            },
            "orbiting_body": "Earth"
        }
    ],
    "orbital_data": {
        "orbit_id": "6",
        "orbit_determination_date": "2017-08-10 06:19:11",
        "first_observation_date": "2015-04-20",
        "last_observation_date": "2015-05-19",
        "data_arc_in_days": 29,
        "observations_used": 46,
        "orbit_uncertainty": "7",
        "minimum_orbit_intersection": ".000712334",
        "jupiter_tisserand_invariant": "3.869",
        "epoch_osculation": "2459000.5",
        "eccentricity": ".5594169267227568",
        "semi_major_axis": "1.790875599863649",
        "inclination": "7.894734722942572",
        "ascending_node_longitude": "212.150826832637",
        "orbital_period": "875.3798709023993",
        "perihelion_distance": ".7890294756451529",
        "perihelion_argument": "293.2879115595115",
        "aphelion_distance": "2.792721724082145",
        "perihelion_time": "2458838.477624188470",
        "mean_anomaly": "66.63170725187264",
        "mean_motion": ".411250032090512",
        "equinox": "J2000",
        "orbit_class": {
            "orbit_class_type": "APO",
            "orbit_class_description": "Near-Earth asteroid orbits which cross the Earth’s orbit similar to that of 1862 Apollo",
            "orbit_class_range": "a (semi-major axis) > 1.0 AU; q (perihelion) < 1.017 AU"
        }
    },
    "is_sentry_object": false
}